STARLINK-31684          
1 59492U 24071J   25164.07550404  .00000721  00000+0  35726-4 0  9992
2 59492  43.0019  69.9921 0001286 270.2125  89.8580 15.27589107 66858
STARLINK-31678          
1 59493U 24071K   25164.08321037  .00002616  00000+0  10449-3 0  9991
2 59493  43.0014  70.0479 0001308 269.6166  90.4536 15.27595370 66912
STARLINK-31744          
1 59494U 24071L   25164.07934975  .00001007  00000+0  46103-4 0  9992
2 59494  42.9993  70.0174 0001394 275.3450  84.7242 15.27597069 66843
STARLINK-31719          
1 59495U 24071M   25164.43590796  .00000688  00000+0  33745-4 0  9994
2 59495  43.0007  60.6231 0001047 325.9724  34.1060 15.28412794 67044
STARLINK-31728          
1 59496U 24071N   25164.50002315  .00054929  00000+0  20437-2 0  9997
2 59496  43.0007  59.8436 0001641 264.9031 260.5856 15.26715657 67001
STARLINK-31720          
1 59497U 24071P   25163.99619482  .00001613  00000+0  66465-4 0  9994
2 59497  43.0019  63.3396 0001273 248.3234 111.7483 15.28420397 66921
STARLINK-31731          
1 59498U 24071Q   25164.50002315  .00066860  00000+0  23587-2 0  9995
2 59498  43.0008  59.7102 0001520 265.6666 315.1825 15.28383315 67053
STARLINK-31742          
1 59499U 24071R   25164.50002315  .00072076  00000+0  26732-2 0  9997
2 59499  43.0008  59.7139 0001829 255.7447 323.1386 15.26706465 67002
STARLINK-31512          
1 59500U 24071S   25164.29368364  .00002613  00000+0  69746-4 0  9999
2 59500  43.0023  22.4714 0001516 267.2803  92.7880 15.40723317 67420
STARLINK-31458          
1 59501U 24071T   25164.16668981  .00088087  00000+0  32570-2 0  9996
2 59501  43.0006  61.6735 0001391 276.1538 236.3026 15.26714728 66950
STARLINK-31357          
1 59502U 24071U   25164.11543112  .00000566  00000+0  29403-4 0  9999
2 59502  43.0018  62.5125 0001308 269.1789  90.8913 15.28416242 66999
STARLINK-31508          
1 59503U 24071V   25164.11873303  .00002781  00000+0  11058-3 0  9995
2 59503  43.0030  62.5371 0001614 265.0829  94.9838 15.27572362 66937
STARLINK-31535          
1 59504U 24071W   25164.08705823  .00003037  00000+0  11975-3 0  9996
2 59504  43.0019  70.0751 0000918 299.5076  60.5684 15.27607978 66843
STARLINK-31533          
1 59505U 24071X   25164.12643385  .00002125  00000+0  86703-4 0  9995
2 59505  43.0017  62.5938 0001447 270.7897  89.2789 15.27591215 66935
STARLINK-31524          
1 59506U 24071Y   25163.70936504  .00002262  00000+0  91691-4 0  9991
2 59506  42.9998  57.5044 0001479 267.8185  92.2498 15.27583415 66996
STARLINK-31635          
1 59511U 24073A   25163.99441382  .00001307  00000+0  57002-4 0  9992
2 59511  43.0032  40.7407 0001309 284.3372  75.7335 15.27583139 66151
STARLINK-31650          
1 59512U 24073B   25163.70346184  .00002476  00000+0  99490-4 0  9991
2 59512  43.0024  42.8567 0001257 270.1088  89.9620 15.27576986 64886
STARLINK-31658          
1 59513U 24073C   25163.53530683 -.00000488  00000+0 -82312-5 0  9991
2 59513  43.0024   3.4315 0001093 264.4845  95.5882 15.27578595 65316
STARLINK-31669          
1 59515U 24073E   25164.07007883  .00003091  00000+0  12175-3 0  9993
2 59515  42.9989  40.4461 0001264 281.8902  78.1807 15.27590166 66162
STARLINK-31671          
1 59516U 24073F   25164.04068213  .00006696  00000+0  25280-3 0  9990
2 59516  43.0021  41.0798 0000878 283.1766  76.8988 15.27558438 66166
STARLINK-31674          
1 59517U 24073G   25164.08163488  .00001770  00000+0  73815-4 0  9991
2 59517  43.0027  40.5339 0001252 267.3502  92.7206 15.27591472 66162
STARLINK-31679          
1 59519U 24073J   25164.58334491 -.01120342  00000+0 -32196-1 0  9996
2 59519  43.0006  27.5563 0001552 270.9452 231.3621 15.37870974 66364
STARLINK-31370          
1 59520U 24073K   25163.05730675  .00000679  00000+0  34202-4 0  9993
2 59520  43.0070  46.6002 0000909 264.7240  95.3508 15.27579104 64784
STARLINK-31404          
1 59521U 24073L   25163.98299420  .00000752  00000+0  36843-4 0  9999
2 59521  43.0045  41.5077 0001246 287.0137  73.0578 15.27584118 66144
STARLINK-31453          
1 59522U 24073M   25163.94424848  .00006056  00000+0  22951-3 0  9997
2 59522  43.0030  23.6182 0001209 286.0648  74.0070 15.27567094 66245
STARLINK-31476          
1 59523U 24073N   25164.03424265 -.00000641  00000+0 -13772-4 0  9990
2 59523  43.0003  41.0349 0000931 250.7618 109.3132 15.27586974 66059
STARLINK-31376          
1 59524U 24073P   25163.95199634  .00107027  00000+0  29541-2 0  9993
2 59524  42.9989  39.5504 0009290 247.0779 112.9095 15.35955616 64946
STARLINK-31538          
1 59525U 24073Q   25164.07392838  .00002354  00000+0  95015-4 0  9997
2 59525  43.0019  40.4719 0001259 267.5356  92.5352 15.27591546 66059
STARLINK-31564          
1 59526U 24073R   25164.06623019  .00000339  00000+0  21840-4 0  9991
2 59526  43.0008  40.4152 0001127 277.2267  82.8457 15.27579476 66160
STARLINK-31452          
1 59527U 24073S   25164.04453172 -.00001260  00000+0 -36284-4 0  9995
2 59527  43.0038  41.1093 0001218 248.6728 111.3994 15.27569799 66050
STARLINK-31618          
1 59528U 24073T   25163.93928170  .00034163  00000+0  11922-2 0  9994
2 59528  43.0019  41.1802 0002157 226.5668 133.5005 15.29004035 64921
STARLINK-31513          
1 59529U 24073U   25164.04243178  .00002096  00000+0  85654-4 0  9991
2 59529  43.0041  37.5951 0001351 261.5246  98.5452 15.27587417 66192
STARLINK-31392          
1 59530U 24073V   25164.02652520  .00003335  00000+0  13060-3 0  9994
2 59530  43.0013  40.9729 0001416 275.9553  84.1137 15.27592711 66167
STARLINK-31619          
1 59531U 24073W   25164.07778262  .00002709  00000+0  10790-3 0  9993
2 59531  43.0025  40.4991 0001241 281.8770  78.1942 15.27588406 66062
STARLINK-31624          
1 59532U 24073X   25164.31580078  .00072777  00000+0  13069-2 0  9990
2 59532  43.0047  22.2980 0008632 271.5583  88.4287 15.48937208 66362
STARLINK-31509          
1 59533U 24073Y   25163.39837948  .00001216  00000+0  53722-4 0  9991
2 59533  43.0062  44.8735 0001270 282.2899  77.7811 15.27574404 64834
STARLINK-31734          
1 59534U 24074A   25164.05279470  .00003923  00000+0  10116-3 0  9993
2 59534  43.0030  56.1930 0001055 274.8340  85.2396 15.40689948 66066
STARLINK-31738          
1 59535U 24074B   25164.07506545  .00007928  00000+0  29713-3 0  9994
2 59535  43.0014  62.3321 0001233 259.7220 100.3493 15.27600129 65996
STARLINK-31721          
1 59536U 24074C   25163.75023470  .00002676  00000+0  10672-3 0  9999
2 59536  43.0009  67.7384 0000905 272.2176  87.8572 15.27582441 64738
STARLINK-31737          
1 59537U 24074D   25164.15669700  .00005220  00000+0  19918-3 0  9997
2 59537  43.0048  65.6281 0001165 286.2980  73.7743 15.27561735 65976
STARLINK-31725          
1 59538U 24074E   25164.09655974  .00001661  00000+0  69863-4 0  9999
2 59538  43.0032  55.3745 0001130 291.5536  68.5195 15.27586193 66079
STARLINK-31539          
1 59539U 24074F   25164.10287026 -.00000730  00000+0 -17008-4 0  9993
2 59539  43.0002  66.0841 0000903 284.1139  75.9612 15.27574660 65865
STARLINK-31397          
1 59540U 24074G   25164.11700173  .00002216  00000+0  90012-4 0  9994
2 59540  43.0035  66.1877 0001385 263.1121  96.9574 15.27588937 65958
STARLINK-31481          
1 59541U 24074H   25164.12841516  .00001990  00000+0  81783-4 0  9996
2 59541  43.0016  65.4169 0001242 292.8743  67.1978 15.27589649 65965
STARLINK-31540          
1 59542U 24074J   25164.08101554  .00001798  00000+0  74821-4 0  9994
2 59542  43.0016  65.9103 0001042 242.6308 117.4438 15.27582940 65953
STARLINK-31574          
1 59543U 24074K   25163.45285323 -.00002526  00000+0 -82220-4 0  9996
2 59543  43.0029  69.8029 0000841 289.6574  70.4187 15.27606796 64684
STARLINK-31556          
1 59544U 24074L   25164.10928697  .00002587  00000+0  10351-3 0  9998
2 59544  43.0026  66.1330 0000708 271.2928  88.7843 15.27579798 65952
STARLINK-31582          
1 59545U 24074M   25164.12085474  .00011209  00000+0  41612-3 0  9993
2 59545  43.0033  66.2155 0001326 274.2587  85.8113 15.27588948 65953
STARLINK-31519          
1 59546U 24074N   25163.74252539  .00001530  00000+0  65109-4 0  9993
2 59546  43.0033  67.6776 0001466 266.5108  93.5576 15.27584628 64731
STARLINK-31736          
1 59547U 24074P   25164.09483614  .00000822  00000+0  39369-4 0  9995
2 59547  43.0026  59.0983 0001379 272.6139  87.4555 15.27587904 65947
STARLINK-31675          
1 59548U 24074Q   25164.08486531  .00003357  00000+0  13143-3 0  9993
2 59548  43.0009  65.9396 0001163 255.3391 104.7332 15.27582254 65952
STARLINK-31722          
1 59549U 24074R   25163.15019306  .00000075  00000+0  12264-4 0  9991
2 59549  43.0020  70.9718 0001350 270.2868  89.7829 15.27590753 64644
STARLINK-31741          
1 59550U 24074S   25163.74638109  .00000748  00000+0  36693-4 0  9995
2 59550  43.0009  67.7039 0001131 252.4678 107.6050 15.27580333 64730
STARLINK-31699          
1 59551U 24074T   25164.08743769  .00001028  00000+0  46842-4 0  9992
2 59551  43.0025  65.9582 0000843 288.7814  71.2946 15.27593540 65954
STARLINK-31750          
1 59552U 24074U   25163.57592672  .00000204  00000+0  16933-4 0  9994
2 59552  43.0020  69.0091 0001242 266.0311  94.0399 15.27585950 65934
STARLINK-31723          
1 59553U 24074V   25163.44129547  .00000945  00000+0  43860-4 0  9999
2 59553  43.0038  69.7188 0001365 265.9677  94.1019 15.27572193 64683
STARLINK-31724          
1 59554U 24074W   25164.03179154 -.00004229  00000+0 -14409-3 0  9992
2 59554  43.0036  30.3682 0001395 266.6503  93.4189 15.27611916 66256
STARLINK-31730          
1 59555U 24074X   25164.45164670 -.00000059  00000+0  73815-5 0  9990
2 59555  43.0036  64.3955 0000906 246.9559 113.1197 15.27575459 66009
STARLINK-31718          
1 59556U 24074Y   25164.44008458  .00000720  00000+0  35696-4 0  9999
2 59556  43.0042  64.3093 0000843 267.5239  92.5516 15.27578330 66000
